{"type": "FeatureCollection", "features": [ {"type": "Feature", "properties": {"norad_id": 43648, "name": "BEIDOU-3 M15 (C34)", "group": "gnss", "lat": -42.6674495997263, "lon": -95.42334137277335, "alt_km": 21530.191037377335, "timestamp": "2025-12-23T11:34:48.410623+00:00", "meta": {"OBJECT_NAME": "BEIDOU-3 M15 (C34)", "OBJECT_ID": "2018-078B", "EPOCH": "2025-12-22T11:49:56.675712", "MEAN_MOTION": 1.86232375, "ECCENTRICITY": 0.00040477, "INCLINATION": 54.2489, "RA_OF_ASC_NODE": 306.1811, "ARG_OF_PERICENTER": 19.7114, "MEAN_ANOMALY": 340.3062, "EPHEMERIS_TYPE": 0, "CLASSIFICATION_TYPE": "U", "NORAD_CAT_ID": 43648, "ELEMENT_SET_NO": 999, "REV_AT_EPOCH": 4888, "BSTAR": 0, "MEAN_MOTION_DOT": -5.6e-07, "MEAN_MOTION_DDOT": 0}, "tle": {"line1": "1 43648U 18078B   25356.49301708 -.00000056  00000+0  00000+0 0  9992", "line2": "2 43648  54.2489 306.1811 0004047  19.7114 340.3062  1.86232375 48880"}}, "geometry": {"type": "Point", "coordinates": [-95.42334137277335, -42.6674495997263]}}, {"type": "Feature", "properties": {"norad_id": 43683, "name": "BEIDOU-3 G1 (C59)", "group": "gnss", "lat": -2.1880947740392487, "lon": 45.96047671241548, "alt_km": 35788.81665097821, "timestamp": "2025-12-23T11:34:48.410633+00:00", "meta": {"OBJECT_NAME": "BEIDOU-3 G1 (C59)", "OBJECT_ID": "2018-085A", "EPOCH": "2025-12-23T04:31:38.584128", "MEAN_MOTION": 1.00267396, "ECCENTRICITY": 0.0001495, "INCLINATION": 2.6324, "RA_OF_ASC_NODE": 102.6584, "ARG_OF_PERICENTER": 44.3716, "MEAN_ANOMALY": 152.8467, "EPHEMERIS_TYPE": 0, "CLASSIFICATION_TYPE": "U", "NORAD_CAT_ID": 43683, "ELEMENT_SET_NO": 999, "REV_AT_EPOCH": 2629, "BSTAR": 0, "MEAN_MOTION_DOT": -2.59e-06, "MEAN_MOTION_DDOT": 0}, "tle": {"line1": "1 43683U 18085A   25357.18864102 -.00000259  00000+0  00000+0 0  9993", "line2": "2 43683   2.6324 102.6584 0001495  44.3716 152.8467  1.00267396 26299"}}, "geometry": {"type": "Point", "coordinates": [45.96047671241548, -2.1880947740392487]}}, {"type": "Feature", "properties": {"norad_id": 43687, "name": "COSMOS 2529 (757)", "group": "gnss", "lat": -26.500285983005984, "lon": 32.43557346281442, "alt_km": 19120.89206123616, "timestamp": "2025-12-23T11:34:48.410645+00:00", "meta": {"OBJECT_NAME": "COSMOS 2529 (757)", "OBJECT_ID": "2018-086A", "EPOCH": "2025-12-21T19:13:53.194368", "MEAN_MOTION": 2.13102139, "ECCENTRICITY": 0.00069117, "INCLINATION": 64.2926, "RA_OF_ASC_NODE": 198.5821, "ARG_OF_PERICENTER": 253.6836, "MEAN_ANOMALY": 106.3102, "EPHEMERIS_TYPE": 0, "CLASSIFICATION_TYPE": "U", "NORAD_CAT_ID": 43687, "ELEMENT_SET_NO": 999, "REV_AT_EPOCH": 5550, "BSTAR": 0, "MEAN_MOTION_DOT": 9.6e-07, "MEAN_MOTION_DDOT": 0}, "tle": {"line1": "1 43687U 18086A   25355.80131012  .00000096  00000+0  00000+0 0  9990", "line2": "2 43687  64.2926 198.5821 0006911 253.6836 106.3102  2.13102139 55503"}}, "geometry": {"type": "Point", "coordinates": [32.43557346281442, -26.500285983005984]}}, {"type": "Feature", "properties": {"norad_id": 43706, "name": "BEIDOU-3 M17 (C36)", "group": "gnss", "lat": -13.676204617692193, "lon": 18.39097040104804, "alt_km": 21536.16822472046, "timestamp": "2025-12-23T11:34:48.410655+00:00", "meta": {"OBJECT_NAME": "BEIDOU-3 M17 (C36)", "OBJECT_ID": "2018-093A", "EPOCH": "2025-12-22T11:03:17.644896", "MEAN_MOTION": 1.86228432, "ECCENTRICITY": 0.00060427, "INCLINATION": 54.173, "RA_OF_ASC_NODE": 188.2918, "ARG_OF_PERICENTER": 307.405, "MEAN_ANOMALY": 284.4943, "EPHEMERIS_TYPE": 0, "CLASSIFICATION_TYPE": "U", "NORAD_CAT_ID": 43706, "ELEMENT_SET_NO": 999, "REV_AT_EPOCH": 4824, "BSTAR": 0, "MEAN_MOTION_DOT": 9.4e-07, "MEAN_MOTION_DDOT": 0}, "tle": {"line1": "1 43706U 18093A   25356.46062089  .00000094  00000+0  00000+0 0  9998", "line2": "2 43706  54.1730 188.2918 0006042 307.4050 284.4943  1.86228432 48248"}}, "geometry": {"type": "Point", "coordinates": [18.39097040104804, -13.676204617692193]}}, {"type": "Feature", "properties": {"norad_id": 43707, "name": "BEIDOU-3 M18 (C37)", "group": "gnss", "lat": -49.70959322550869, "lon": 129.75988904020818, "alt_km": 21526.39845504788, "timestamp": "2025-12-23T11:34:48.410666+00:00", "meta": {"OBJECT_NAME": "BEIDOU-3 M18 (C37)", "OBJECT_ID": "2018-093B", "EPOCH": "2025-12-20T21:39:28.587744", "MEAN_MOTION": 1.86226757, "ECCENTRICITY": 0.00062168, "INCLINATION": 54.1741, "RA_OF_ASC_NODE": 188.3365, "ARG_OF_PERICENTER": 353.7926, "MEAN_ANOMALY": 6.2524, "EPHEMERIS_TYPE": 0, "CLASSIFICATION_TYPE": "U", "NORAD_CAT_ID": 43707, "ELEMENT_SET_NO": 999, "REV_AT_EPOCH": 4821, "BSTAR": 0, "MEAN_MOTION_DOT": 9.5e-07, "MEAN_MOTION_DDOT": 0}, "tle": {"line1": "1 43707U 18093B   25354.90241421  .00000095  00000+0  00000+0 0  9996", "line2": "2 43707  54.1741 188.3365 0006216 353.7926   6.2524  1.86226757 48217"}}, "geometry": {"type": "Point", "coordinates": [129.75988904020818, -49.70959322550869]}}, {"type": "Feature", "properties": {"norad_id": 43873, "name": "GPS BIII-1  (PRN 04)", "group": "gnss", "lat": -16.305173872250627, "lon": 87.56984560418138, "alt_km": 20266.923959907843, "timestamp": "2025-12-23T11:34:48.410684+00:00", "meta": {"OBJECT_NAME": "GPS BIII-1  (PRN 04)", "OBJECT_ID": "2018-109A", "EPOCH": "2025-12-21T18:06:33.031872", "MEAN_MOTION": 2.00553985, "ECCENTRICITY": 0.00375944, "INCLINATION": 55.5715, "RA_OF_ASC_NODE": 99.1915, "ARG_OF_PERICENTER": 195.3805, "MEAN_ANOMALY": 336.8667, "EPHEMERIS_TYPE": 0, "CLASSIFICATION_TYPE": "U", "NORAD_CAT_ID": 43873, "ELEMENT_SET_NO": 999, "REV_AT_EPOCH": 5151, "BSTAR": 0, "MEAN_MOTION_DOT": -1e-08, "MEAN_MOTION_DDOT": 0}, "tle": {"line1": "1 43873U 18109A   25355.75454898 -.00000001  00000+0  00000+0 0  9994", "line2": "2 43873  55.5715  99.1915 0037594 195.3805 336.8667  2.00553985 51516"}}, "geometry": {"type": "Point", "coordinates": [87.56984560418138, -16.305173872250627]}}, {"type": "Feature", "properties": {"norad_id": 44231, "name": "BEIDOU-2 G8 (C01)", "group": "gnss", "lat": -0.6751559038138318, "lon": 50.56340761971733, "alt_km": 35777.65652748353, "timestamp": "2025-12-23T11:34:48.410697+00:00", "meta": {"OBJECT_NAME": "BEIDOU-2 G8 (C01)", "OBJECT_ID": "2019-027A", "EPOCH": "2025-12-19T12:14:23.449632", "MEAN_MOTION": 1.00276563, "ECCENTRICITY": 0.0008196, "INCLINATION": 1.6785, "RA_OF_ASC_NODE": 74.7229, "ARG_OF_PERICENTER": 258.5641, "MEAN_ANOMALY": 83.1013, "EPHEMERIS_TYPE": 0, "CLASSIFICATION_TYPE": "U", "NORAD_CAT_ID": 44231, "ELEMENT_SET_NO": 999, "REV_AT_EPOCH": 2427, "BSTAR": 0, "MEAN_MOTION_DOT": -2.24e-06, "MEAN_MOTION_DDOT": 0}, "tle": {"line1": "1 44231U 19027A   25353.50999363 -.00000224  00000+0  00000+0 0  9992", "line2": "2 44231   1.6785  74.7229 0008196 258.5641  83.1013  1.00276563 24270"}}, "geometry": {"type": "Point", "coordinates": [50.56340761971733, -0.6751559038138318]}}, {"type": "Feature", "properties": {"norad_id": 44299, "name": "COSMOS 2534 (758)", "group": "gnss", "lat": -14.20521261404203, "lon": -168.4494039259024, "alt_km": 19121.251744455938, "timestamp": "2025-12-23T11:34:48.410708+00:00", "meta": {"OBJECT_NAME": "COSMOS 2534 (758)", "OBJECT_ID": "2019-030A", "EPOCH": "2025-12-23T05:25:58.120896", "MEAN_MOTION": 2.13102319, "ECCENTRICITY": 0.0008651, "INCLINATION": 64.3662, "RA_OF_ASC_NODE": 198.5395, "ARG_OF_PERICENTER": 283.922, "MEAN_ANOMALY": 223.7543, "EPHEMERIS_TYPE": 0, "CLASSIFICATION_TYPE": "U", "NORAD_CAT_ID": 44299, "ELEMENT_SET_NO": 999, "REV_AT_EPOCH": 5117, "BSTAR": 0, "MEAN_MOTION_DOT": 9.5e-07, "MEAN_MOTION_DDOT": 0}, "tle": {"line1": "1 44299U 19030A   25357.22636714  .00000095  00000+0  00000+0 0  9996", "line2": "2 44299  64.3662 198.5395 0008651 283.9220 223.7543  2.13102319 51175"}}, "geometry": {"type": "Point", "coordinates": [-168.4494039259024, -14.20521261404203]}}, {"type": "Feature", "properties": {"norad_id": 44337, "name": "BEIDOU-3 IGSO-2 (C39)", "group": "gnss", "lat": -35.610794521371034, "lon": 10.262109984865893, "alt_km": 35645.569719076935, "timestamp": "2025-12-23T11:34:48.410718+00:00", "meta": {"OBJECT_NAME": "BEIDOU-3 IGSO-2 (C39)", "OBJECT_ID": "2019-035A", "EPOCH": "2025-12-22T20:34:56.810208", "MEAN_MOTION": 1.00268278, "ECCENTRICITY": 0.00377374, "INCLINATION": 55.2288, "RA_OF_ASC_NODE": 160.4125, "ARG_OF_PERICENTER": 202.3518, "MEAN_ANOMALY": 156.9915, "EPHEMERIS_TYPE": 0, "CLASSIFICATION_TYPE": "U", "NORAD_CAT_ID": 44337, "ELEMENT_SET_NO": 999, "REV_AT_EPOCH": 2389, "BSTAR": 0, "MEAN_MOTION_DOT": -7.6e-07, "MEAN_MOTION_DDOT": 0}, "tle": {"line1": "1 44337U 19035A   25356.85760197 -.00000076  00000+0  00000+0 0  9995", "line2": "2 44337  55.2288 160.4125 0037737 202.3518 156.9915  1.00268278 23892"}}, "geometry": {"type": "Point", "coordinates": [10.262109984865893, -35.610794521371034]}}, {"type": "Feature", "properties": {"norad_id": 44506, "name": "GPS BIII-2  (PRN 18)", "group": "gnss", "lat": -44.314097702893875, "lon": -160.14228457597113, "alt_km": 20068.03147730128, "timestamp": "2025-12-23T11:34:48.410729+00:00", "meta": {"OBJECT_NAME": "GPS BIII-2  (PRN 18)", "OBJECT_ID": "2019-056A", "EPOCH": "2025-12-22T09:30:36.985824", "MEAN_MOTION": 2.00566609, "ECCENTRICITY": 0.00577373, "INCLINATION": 55.718, "RA_OF_ASC_NODE": 338.1699, "ARG_OF_PERICENTER": 198.5796, "MEAN_ANOMALY": 334.3723, "EPHEMERIS_TYPE": 0, "CLASSIFICATION_TYPE": "U", "NORAD_CAT_ID": 44506, "ELEMENT_SET_NO": 999, "REV_AT_EPOCH": 4652, "BSTAR": 0, "MEAN_MOTION_DOT": -6.7e-07, "MEAN_MOTION_DDOT": 0}, "tle": {"line1": "1 44506U 19056A   25356.39626141 -.00000067  00000+0  00000+0 0  9995", "line2": "2 44506  55.7180 338.1699 0057737 198.5796 334.3723  2.00566609 46526"}}, "geometry": {"type": "Point", "coordinates": [-160.14228457597113, -44.314097702893875]}}]}